[ {"name": "STARLINK-33897", "line1": "1 63865U 25094B   26156.81973502  .00003343  00000+0  28774-3 0  9996", "line2": "2 63865  70.0015  12.2753 0002881 265.5472  94.5358 14.98342653 60626"}, {"name": "STARLINK-34022", "line1": "1 63866U 25094C   26156.83242235  .00004393  00000+0  37563-3 0  9993", "line2": "2 63866  70.0019  12.3129 0002309 261.5923  98.4975 14.98341030 60403"}, {"name": "STARLINK-33979", "line1": "1 63867U 25094D   26156.02279874  .00004756  00000+0  40594-3 0  9995", "line2": "2 63867  70.0012  14.3079 0003319 282.8978  77.1810 14.98349921 60286"}, {"name": "STARLINK-34007", "line1": "1 63868U 25094E   26156.84479130  .00004529  00000+0  38684-3 0  9998", "line2": "2 63868  70.0020  12.3662 0002427 276.7520  83.3363 14.98360343 60403"}, {"name": "STARLINK-34006", "line1": "1 63869U 25094F   26156.86996508  .00003761  00000+0  32279-3 0  9995", "line2": "2 63869  70.0020  12.0481 0002420 270.9675  89.1207 14.98338207 60416"}, {"name": "STARLINK-33986", "line1": "1 63870U 25094G   26156.81157173  .00007383  00000+0  62587-3 0  9998", "line2": "2 63870  70.0014  12.2421 0003051 266.5270  93.5540 14.98334006 60401"}, {"name": "STARLINK-34013", "line1": "1 63871U 25094H   26156.86562534  .00004338  00000+0  37106-3 0  9991", "line2": "2 63871  70.0014  12.0394 0002934 267.9332  92.1491 14.98337500 60415"}, {"name": "STARLINK-34059", "line1": "1 63872U 25094J   26156.84060340  .00003835  00000+0  32886-3 0  9999", "line2": "2 63872  70.0033  12.3569 0002403 256.7179 103.3712 14.98346249 60400"}, {"name": "STARLINK-33987", "line1": "1 63873U 25094K   26156.80719782  .00000391  00000+0  40561-4 0  9991", "line2": "2 63873  70.0002  12.2251 0002881 251.7098 108.3748 14.98338788 60402"}, {"name": "STARLINK-34052", "line1": "1 63874U 25094L   26156.83643112  .00006572  00000+0  55793-3 0  9997", "line2": "2 63874  70.0014  12.3332 0002877 260.6591  99.4243 14.98338607 60409"}, {"name": "STARLINK-34023", "line1": "1 63875U 25094M   26156.86979889  .00004460  00000+0  38122-3 0  9995", "line2": "2 63875  70.0023  12.0486 0002847 268.2586  91.8247 14.98340022 60417"}, {"name": "STARLINK-33778", "line1": "1 63877U 25094P   26156.82392628  .00079059  00000+0  65216-2 0  9992", "line2": "2 63877  70.0034  12.2871 0004259 314.7946  45.2867 14.98549465 60409"}, {"name": "STARLINK-33901", "line1": "1 63878U 25094Q   26156.84076802  .00002199  00000+0  19197-3 0  9997", "line2": "2 63878  70.0018  12.3405 0002949 263.9670  96.1153 14.98341572 60401"}, {"name": "STARLINK-33812", "line1": "1 63879U 25094R   26156.81556107  .00005206  00000+0  44363-3 0  9991", "line2": "2 63879  70.0013  12.2543 0002572 269.0151  91.0713 14.98340147 60405"}, {"name": "STARLINK-33779", "line1": "1 63880U 25094S   26156.83226131  .00005651  00000+0  48077-3 0  9996", "line2": "2 63880  70.0055  12.3239 0002864 306.8347  53.2549 14.98352727 60401"}, {"name": "STARLINK-33905", "line1": "1 63881U 25094T   26156.85727566  .00004306  00000+0  36838-3 0  9995", "line2": "2 63881  70.0017  12.0067 0002873 267.3257  92.7573 14.98338559 60410"}, {"name": "STARLINK-34003", "line1": "1 63882U 25094U   26156.80841702  .00046365  00000+0  11158-2 0  9998", "line2": "2 63882  70.0047 327.7397 0002676 269.3805  90.7070 15.41049239 61513"}, {"name": "STARLINK-33968", "line1": "1 63883U 25094V   26156.84494723  .00006010  00000+0  51077-3 0  9998", "line2": "2 63883  70.0075  12.3552 0001833 282.3076  77.7878 14.98350236 60405"}, {"name": "STARLINK-33943", "line1": "1 63884U 25094W   26156.85309372 -.00000315  00000+0 -18580-4 0  9992", "line2": "2 63884  70.0020  11.9911 0002844 265.0842  94.9992 14.98353989 60419"}, {"name": "STARLINK-33858", "line1": "1 63885U 25094X   26156.34406896  .00005545  00000+0  47201-3 0  9995", "line2": "2 63885  70.0016  13.4225 0002920 272.9615  87.1210 14.98337966 60335"}, {"name": "STARLINK-33885", "line1": "1 63886U 25094Y   26156.86145122  .00004451  00000+0  38048-3 0  9999", "line2": "2 63886  70.0019  12.0165 0002696 268.5159  91.5691 14.98338076 60415"}, {"name": "STARLINK-33904", "line1": "1 63887U 25094Z   26156.85744078  .00004326  00000+0  37001-3 0  9993", "line2": "2 63887  70.0015  11.9997 0002115 272.4782  87.6135 14.98339884 60412"}, {"name": "STARLINK-33981", "line1": "1 63888U 25094AA  26156.82824885  .00003113  00000+0  26847-3 0  9995", "line2": "2 63888  70.0019  12.3008 0002270 263.2671  96.8229 14.98344275 60407"}, {"name": "STARLINK-33738", "line1": "1 63889U 25094AB  26156.81572821  .00008285  00000+0  70112-3 0  9994", "line2": "2 63889  70.0048  12.2361 0002073 287.4761  72.6171 14.98343463 60620"}, {"name": "STARLINK-34116", "line1": "1 63890U 25095A   26156.88116510  .00025147  00000+0  91958-3 0  9990", "line2": "2 63890  42.9987  38.3276 0000939 272.4669  87.6075 15.27603290 61277"}, {"name": "STARLINK-34123", "line1": "1 63891U 25095B   26156.89528309  .00025938  00000+0  94773-3 0  9991", "line2": "2 63891  42.9950  38.4409 0001464 275.5847  84.4838 15.27615584 61274"}, {"name": "STARLINK-33972", "line1": "1 63893U 25095D   26156.15420198  .00021107  00000+0  77422-3 0  9995", "line2": "2 63893  43.0013  42.3299 0001288 255.9668 104.1040 15.27584435 61169"}, {"name": "STARLINK-33973", "line1": "1 63894U 25095E   26156.96824463  .00022012  00000+0  80669-3 0  9991", "line2": "2 63894  43.0016  37.2566 0000800 281.0341  79.0421 15.27593603 61294"}, {"name": "STARLINK-34119", "line1": "1 63895U 25095F   26153.94518345 -.00015313  00000+0 -54858-3 0  9995", "line2": "2 63895  42.9959  54.9897 0001078 247.1358 112.9380 15.27549859 60824"}, {"name": "STARLINK-34143", "line1": "1 63896U 25095G   26156.40418165  .00018352  00000+0  67447-3 0  9991", "line2": "2 63896  43.0049  40.7636 0002026 267.4480  92.6140 15.27593721 61204"}]