OBJECT_NAME,OBJECT_ID,EPOCH,MEAN_MOTION,ECCENTRICITY,INCLINATION,RA_OF_ASC_NODE,ARG_OF_PERICENTER,MEAN_ANOMALY,EPHEMERIS_TYPE,CLASSIFICATION_TYPE,NORAD_CAT_ID,ELEMENT_SET_NO,REV_AT_EPOCH,BSTAR,MEAN_MOTION_DOT,MEAN_MOTION_DDOT
STARLINK-33897,2025-094B,2026-06-05T19:40:25.105728,14.98342653,.00028813,70.0015,12.2753,265.5472,94.5358,0,U,63865,999,6062,.28774321E-3,.3343E-4,0
STARLINK-34022,2025-094C,2026-06-05T19:58:41.291040,14.98341030,.0002309,70.0019,12.3129,261.5923,98.4975,0,U,63866,999,6040,.37563E-3,.4393E-4,0
STARLINK-33979,2025-094D,2026-06-05T00:32:49.811136,14.98349921,.00033197,70.0012,14.3079,282.8978,77.1810,0,U,63867,999,6028,.40593971E-3,.4756E-4,0
STARLINK-34007,2025-094E,2026-06-05T20:16:29.968320,14.98360343,.0002427,70.0020,12.3662,276.7520,83.3363,0,U,63868,999,6040,.38684E-3,.4529E-4,0
STARLINK-34006,2025-094F,2026-06-05T20:52:44.982912,14.98338207,.000242,70.0020,12.0481,270.9675,89.1207,0,U,63869,999,6041,.32279E-3,.3761E-4,0
STARLINK-33986,2025-094G,2026-06-05T19:28:39.797472,14.98334006,.0003051,70.0014,12.2421,266.5270,93.5540,0,U,63870,999,6040,.62586808E-3,.7383E-4,0
STARLINK-34013,2025-094H,2026-06-05T20:46:30.029376,14.98337500,.0002934,70.0014,12.0394,267.9332,92.1491,0,U,63871,999,6041,.37106E-3,.4338E-4,0
STARLINK-34059,2025-094J,2026-06-05T20:10:28.133760,14.98346249,.0002403,70.0033,12.3569,256.7179,103.3712,0,U,63872,999,6040,.32886E-3,.3835E-4,0
STARLINK-33987,2025-094K,2026-06-05T19:22:21.891648,14.98338788,.00028817,70.0002,12.2251,251.7098,108.3748,0,U,63873,999,6040,.40561277E-4,.391E-5,0
STARLINK-34052,2025-094L,2026-06-05T20:04:27.648768,14.98338607,.0002877,70.0014,12.3332,260.6591,99.4243,0,U,63874,999,6040,.55793E-3,.6572E-4,0
STARLINK-34023,2025-094M,2026-06-05T20:52:30.624096,14.98340022,.0002847,70.0023,12.0486,268.2586,91.8247,0,U,63875,999,6041,.38122E-3,.446E-4,0
STARLINK-33778,2025-094P,2026-06-05T19:46:27.230592,14.98549465,.0004259,70.0034,12.2871,314.7946,45.2867,0,U,63877,999,6040,.65216E-2,.79059E-3,0
STARLINK-33901,2025-094Q,2026-06-05T20:10:42.356928,14.98341572,.0002949,70.0018,12.3405,263.9670,96.1153,0,U,63878,999,6040,.19197E-3,.2199E-4,0
STARLINK-33812,2025-094R,2026-06-05T19:34:24.476448,14.98340147,.00025722,70.0013,12.2543,269.0151,91.0713,0,U,63879,999,6040,.44362632E-3,.5206E-4,0
STARLINK-33779,2025-094S,2026-06-05T19:58:27.377184,14.98352727,.0002864,70.0055,12.3239,306.8347,53.2549,0,U,63880,999,6040,.48077E-3,.5651E-4,0
STARLINK-33905,2025-094T,2026-06-05T20:34:28.617024,14.98338559,.0002873,70.0017,12.0067,267.3257,92.7573,0,U,63881,999,6041,.36838E-3,.4306E-4,0
STARLINK-34003,2025-094U,2026-06-05T19:24:07.230528,15.41049239,.00026766,70.0047,327.7397,269.3805,90.7070,0,U,63882,999,6151,.11158275E-2,.46365E-3,0
STARLINK-33968,2025-094V,2026-06-05T20:16:43.440672,14.98350236,.0001833,70.0075,12.3552,282.3076,77.7878,0,U,63883,999,6040,.51077E-3,.601E-4,0
STARLINK-33943,2025-094W,2026-06-05T20:28:27.297408,14.98353989,.0002844,70.0020,11.9911,265.0842,94.9992,0,U,63884,999,6041,-.1858E-4,-.315E-5,0
STARLINK-33858,2025-094X,2026-06-05T08:15:27.558144,14.98337966,.000292,70.0016,13.4225,272.9615,87.1210,0,U,63885,999,6033,.47200799E-3,.5545E-4,0
STARLINK-33885,2025-094Y,2026-06-05T20:40:29.385408,14.98338076,.0002696,70.0019,12.0165,268.5159,91.5691,0,U,63886,999,6041,.38048E-3,.4451E-4,0
STARLINK-33904,2025-094Z,2026-06-05T20:34:42.883392,14.98339884,.0002115,70.0015,11.9997,272.4782,87.6135,0,U,63887,999,6041,.37001E-3,.4326E-4,0
STARLINK-33981,2025-094AA,2026-06-05T19:52:40.700640,14.98344275,.000227,70.0019,12.3008,263.2671,96.8229,0,U,63888,999,6040,.26847E-3,.3113E-4,0
STARLINK-33738,2025-094AB,2026-06-05T19:34:38.917344,14.98343463,.00020733,70.0048,12.2361,287.4761,72.6171,0,U,63889,999,6062,.70112238E-3,.8285E-4,0
STARLINK-34116,2025-095A,2026-06-05T21:08:52.664640,15.27603290,.0000939,42.9987,38.3276,272.4669,87.6075,0,U,63890,999,6127,.91958E-3,.25147E-3,0
STARLINK-34123,2025-095B,2026-06-05T21:29:12.458976,15.27615584,.0001464,42.9950,38.4409,275.5847,84.4838,0,U,63891,999,6127,.94773E-3,.25938E-3,0
STARLINK-33972,2025-095D,2026-06-05T03:42:03.051072,15.27584435,.00012884,43.0013,42.3299,255.9668,104.1040,0,U,63893,999,6116,.77421869E-3,.21107E-3,0
STARLINK-33973,2025-095E,2026-06-05T23:14:16.336032,15.27593603,.00008,43.0016,37.2566,281.0341,79.0421,0,U,63894,999,6129,.80669E-3,.22012E-3,0
STARLINK-34119,2025-095F,2026-06-02T22:41:03.850080,15.27549859,.0001078,42.9959,54.9897,247.1358,112.9380,0,U,63895,999,6082,-.54858E-3,-.15313E-3,0
STARLINK-34143,2025-095G,2026-06-05T09:42:01.294560,15.27593721,.00020267,43.0049,40.7636,267.4480,92.6140,0,U,63896,999,6120,.67447054E-3,.18352E-3,0
